QIANFAN-1               
1 60379U 24140A   25202.56224075  .00000118  00000+0  16426-3 0  9999
2 60379  88.9843 314.1732 0015491 270.1561  89.7815 13.50952542 47881
QIANFAN-2               
1 60380U 24140B   25202.59107669  .00000117  00000+0  16260-3 0  9998
2 60380  88.9829 314.0296 0011276 237.1387 122.8679 13.50959014 47942
QIANFAN-3               
1 60381U 24140C   25202.59923061  .00000122  00000+0  16999-3 0  9996
2 60381  88.9822 314.1720 0012110 251.9577 108.0254 13.50957138 47852
QIANFAN-4               
1 60382U 24140D   25202.57459095  .00000110  00000+0  15127-3 0  9995
2 60382  88.9847 314.0361 0011439 240.2868 119.7145 13.50952600 47977
QIANFAN-5               
1 60383U 24140E   25202.62403713  .00000110  00000+0  15213-3 0  9994
2 60383  88.9822 314.1952 0013211 265.1592  94.8051 13.50955701 47848
QIANFAN-6               
1 60384U 24140F   25202.57041652  .00000078  00000+0  10273-3 0  9993
2 60384  88.9849 313.9086 0011407 247.2149 112.7797 13.50952387 48033
QIANFAN-7               
1 60385U 24140G   25202.63071465  .00000478  00000+0  18855-3 0  9994
2 60385  88.9851 310.6254 0016629 148.1039 212.1166 14.27482355 49838
QIANFAN-8               
1 60386U 24140H   25202.57876981  .00000100  00000+0  13640-3 0  9993
2 60386  88.9850 314.1426 0014812 250.8816 109.0732 13.50956245 47889
